[{"OBJECT_NAME":"STARLINK-5936","OBJECT_ID":"2023-042AB","EPOCH":"2026-03-09T22:00:01.999584","MEAN_MOTION":15.07665252,"ECCENTRICITY":0.00013531,"INCLINATION":43.0004,"RA_OF_ASC_NODE":42.1788,"ARG_OF_PERICENTER":245.481,"MEAN_ANOMALY":15.1983,"EPHEMERIS_TYPE":0,"CLASSIFICATION_TYPE":"U","NORAD_CAT_ID":56011,"ELEMENT_SET_NO":999,"REV_AT_EPOCH":572,"BSTAR":0.003841084,"MEAN_MOTION_DOT":0.00059849,"MEAN_MOTION_DDOT":0},{"OBJECT_NAME":"JILIN-01 KUANFU 02B 5","OBJECT_ID":"2024-169E","EPOCH":"2026-03-09T22:46:28.718400","MEAN_MOTION":15.09244096,"ECCENTRICITY":0.00111722,"INCLINATION":97.556,"RA_OF_ASC_NODE":160.0628,"ARG_OF_PERICENTER":294.0678,"MEAN_ANOMALY":65.9381,"EPHEMERIS_TYPE":0,"CLASSIFICATION_TYPE":"U","NORAD_CAT_ID":61193,"ELEMENT_SET_NO":999,"REV_AT_EPOCH":8086,"BSTAR":0.00034816655,"MEAN_MOTION_DOT":5.486e-5,"MEAN_MOTION_DDOT":0}]
